{
  "norad_id": 44552,
  "name": "COSMOS 2541",
  "history": [
    {
      "epoch": "2026-03-26T12:40:37.648128",
      "apogee_km": 37387.45070831866,
      "perigee_km": 2966.1503852411543,
      "latitude_deg": 8.345909649922902,
      "longitude_deg": -66.091502079973,
      "semi_major_axis_km": 26554.937546779907,
      "eccentricity": 0.64811488,
      "inclination_deg": 62.7115,
      "raan_deg": 164.6406,
      "arg_perigee_deg": 272.1807,
      "mean_anomaly_deg": 20.4143,
      "mean_motion_rev_day": 2.00624901
    }
  ]
}