{"fetched_at":"2026-03-29T02:12:04Z","count":15717,"tles":[{"name":"COSMOS 2541","line1":"1 44552U 19065A   26085.52821352  .00000028  00000+0  00000+0 0  9998","line2":"2 44552  62.7115 164.6406 6481148 272.1807  20.4143  2.00624901 47560","category":"Other"}]}